start=new Date('2023-06-07T00:00:00.000Z').valueOf();
sats=[{"OBJECT_TYPE":"PAYLOAD","MEAN_MOTION":"14.98338724","MEAN_MOTION_DOT":"0.00000567","COUNTRY_CODE":"US","GP_ID":"233356077","FILE":"3926571","ELEMENT_SET_NO":"999","PERIAPSIS":"569.680","SEMIMAJOR_AXIS":"6950.166","OBJECT_NAME":"STARLINK-3101","MEAN_ELEMENT_THEORY":"SGP4","REF_FRAME":"TEME","INCLINATION":"69.9993","REV_AT_EPOCH":"9684","EPHEMERIS_TYPE":"0","EPOCH":"2023-06-06T18:03:12.429216","DECAY_DATE":null,"CENTER_NAME":"EARTH","ECCENTRICITY":"0.00033820","SITE":"AFWTR","BSTAR":"0.00005526000000","PERIOD":"96.106","MEAN_MOTION_DDOT":"0.0000000000000","TLE_LINE1":"1 49168U 21082AQ  23157.75222719  .00000567  00000-0  55260-4 0  9994","TIME_SYSTEM":"UTC","LAUNCH_DATE":"2021-09-14","CLASSIFICATION_TYPE":"U","RA_OF_ASC_NODE":"293.2884","RCS_SIZE":"LARGE","MEAN_ANOMALY":"92.9258","TLE_LINE2":"2 49168  69.9993 293.2884 0003382 267.1514  92.9258 14.98338724 96844","NORAD_CAT_ID":"49168","ARG_OF_PERICENTER":"267.1514","APOAPSIS":"574.381","OBJECT_ID":"2021-082AQ"},{"DECAY_DATE":null,"EPOCH":"2023-06-06T19:51:21.832992","CENTER_NAME":"EARTH","SITE":"AFWTR","ECCENTRICITY":"0.00031250","BSTAR":"0.00003902300000","PERIOD":"96.107","TIME_SYSTEM":"UTC","MEAN_MOTION_DDOT":"0.0000000000000","TLE_LINE1":"1 49169U 21082AR  23157.82733603  .00000373  00000-0  39023-4 0  9996","LAUNCH_DATE":"2021-09-14","CLASSIFICATION_TYPE":"U","RA_OF_ASC_NODE":"293.1201","RCS_SIZE":"LARGE","MEAN_ANOMALY":"91.0474","NORAD_CAT_ID":"49169","TLE_LINE2":"2 49169  69.9997 293.1201 0003125 269.0327  91.0474 14.98335347 95655","APOAPSIS":"574.213","ARG_OF_PERICENTER":"269.0327","OBJECT_ID":"2021-082AR","OBJECT_TYPE":"PAYLOAD","MEAN_MOTION":"14.98335347","MEAN_MOTION_DOT":"0.00000373","COUNTRY_CODE":"US","GP_ID":"233356327","PERIAPSIS":"569.869","ELEMENT_SET_NO":"999","FILE":"3926571","SEMIMAJOR_AXIS":"6950.176","OBJECT_NAME":"STARLINK-3046","MEAN_ELEMENT_THEORY":"SGP4","REF_FRAME":"TEME","INCLINATION":"69.9997","EPHEMERIS_TYPE":"0","REV_AT_EPOCH":"9565"},{"REF_FRAME":"TEME","MEAN_ELEMENT_THEORY":"SGP4","EPHEMERIS_TYPE":"0","REV_AT_EPOCH":"9516","INCLINATION":"69.9996","COUNTRY_CODE":"US","MEAN_MOTION_DOT":"-0.00000009","MEAN_MOTION":"14.98332177","OBJECT_TYPE":"PAYLOAD","SEMIMAJOR_AXIS":"6950.186","OBJECT_NAME":"STARLINK-3074","PERIAPSIS":"569.832","FILE":"3926571","ELEMENT_SET_NO":"999","GP_ID":"233357578","MEAN_ANOMALY":"90.0219","RCS_SIZE":"LARGE","RA_OF_ASC_NODE":"313.1001","OBJECT_ID":"2021-082AS","APOAPSIS":"574.270","ARG_OF_PERICENTER":"270.0574","TLE_LINE2":"2 49170  69.9996 313.1001 0003193 270.0574  90.0219 14.98332177 95168","NORAD_CAT_ID":"49170","SITE":"AFWTR","BSTAR":"0.00000704710000","ECCENTRICITY":"0.00031930","CENTER_NAME":"EARTH","EPOCH":"2023-06-06T19:57:42.544224","DECAY_DATE":null,"CLASSIFICATION_TYPE":"U","LAUNCH_DATE":"2021-09-14","TIME_SYSTEM":"UTC","MEAN_MOTION_DDOT":"0.0000000000000","TLE_LINE1":"1 49170U 21082AS  23157.83174241 -.00000009  00000-0  70471-5 0  9996","PERIOD":"96.107"},{"ECCENTRICITY":"0.00031890","SITE":"AFWTR","BSTAR":"0.00005809300000","DECAY_DATE":null,"EPOCH":"2023-06-06T18:45:50.552640","CENTER_NAME":"EARTH","LAUNCH_DATE":"2021-09-14","CLASSIFICATION_TYPE":"U","PERIOD":"96.107","MEAN_MOTION_DDOT":"0.0000000000000","TLE_LINE1":"1 49171U 21082AT  23157.78183510  .00000600  00000-0  58093-4 0  9991","TIME_SYSTEM":"UTC","RCS_SIZE":"LARGE","MEAN_ANOMALY":"89.5438","RA_OF_ASC_NODE":"313.2125","ARG_OF_PERICENTER":"270.5355","APOAPSIS":"574.266","OBJECT_ID":"2021-082AT","NORAD_CAT_ID":"49171","TLE_LINE2":"2 49171  69.9989 313.2125 0003189 270.5355  89.5438 14.98332821 96316","MEAN_MOTION_DOT":"0.00000600","COUNTRY_CODE":"US","OBJECT_TYPE":"PAYLOAD","MEAN_MOTION":"14.98332821","FILE":"3926571","ELEMENT_SET_NO":"999","PERIAPSIS":"569.833","SEMIMAJOR_AXIS":"6950.184","OBJECT_NAME":"STARLINK-3107","GP_ID":"233357829","REF_FRAME":"TEME","MEAN_ELEMENT_THEORY":"SGP4","INCLINATION":"69.9989","REV_AT_EPOCH":"9631","EPHEMERIS_TYPE":"0"},{"MEAN_ANOMALY":"91.4479","RCS_SIZE":"LARGE","RA_OF_ASC_NODE":"293.1880","OBJECT_ID":"2021-082AU","ARG_OF_PERICENTER":"268.6308","APOAPSIS":"574.300","TLE_LINE2":"2 49172  69.9993 293.1880 0003248 268.6308  91.4479 14.98335069 95647","NORAD_CAT_ID":"49172","SITE":"AFWTR","ECCENTRICITY":"0.00032480","BSTAR":"0.00005636400000","CENTER_NAME":"EARTH","EPOCH":"2023-06-06T19:03:17.699904","DECAY_DATE":null,"CLASSIFICATION_TYPE":"U","LAUNCH_DATE":"2021-09-14","MEAN_MOTION_DDOT":"0.0000000000000","TLE_LINE1":"1 49172U 21082AU  23157.79395486  .00000580  00000-0  56364-4 0  9996","TIME_SYSTEM":"UTC","PERIOD":"96.107","REF_FRAME":"TEME","MEAN_ELEMENT_THEORY":"SGP4","REV_AT_EPOCH":"9564","EPHEMERIS_TYPE":"0","INCLINATION":"69.9993","MEAN_MOTION_DOT":"0.00000580","COUNTRY_CODE":"US","MEAN_MOTION":"14.98335069","OBJECT_TYPE":"PAYLOAD","OBJECT_NAME":"STARLINK-3091","SEMIMAJOR_AXIS":"6950.177","FILE":"3926571","ELEMENT_SET_NO":"999","PERIAPSIS":"569.785","GP_ID":"233356577"},{"GP_ID":"233356827","PERIAPSIS":"569.866","ELEMENT_SET_NO":"999","FILE":"3926571","SEMIMAJOR_AXIS":"6950.177","OBJECT_NAME":"STARLINK-3045","OBJECT_TYPE":"PAYLOAD","MEAN_MOTION":"14.98335000","COUNTRY_CODE":"US","MEAN_MOTION_DOT":"0.00000284","INCLINATION":"69.9994","EPHEMERIS_TYPE":"0","REV_AT_EPOCH":"9564","MEAN_ELEMENT_THEORY":"SGP4","REF_FRAME":"TEME","PERIOD":"96.107","TIME_SYSTEM":"UTC","MEAN_MOTION_DDOT":"0.0000000000000","TLE_LINE1":"1 49173U 21082AV  23157.74805797  .00000284  00000-0  31561-4 0  9996","LAUNCH_DATE":"2021-09-14","CLASSIFICATION_TYPE":"U","EPOCH":"2023-06-06T17:57:12.208608","DECAY_DATE":null,"CENTER_NAME":"EARTH","SITE":"AFWTR","BSTAR":"0.00003156100000","ECCENTRICITY":"0.00031310","TLE_LINE2":"2 49173  69.9994 293.3032 0003131 269.8105  90.2696 14.98335000 95642","NORAD_CAT_ID":"49173","APOAPSIS":"574.219","ARG_OF_PERICENTER":"269.8105","OBJECT_ID":"2021-082AV","RA_OF_ASC_NODE":"293.3032","RCS_SIZE":"LARGE","MEAN_ANOMALY":"90.2696"},{"REF_FRAME":"TEME","MEAN_ELEMENT_THEORY":"SGP4","INCLINATION":"70.0000","REV_AT_EPOCH":"9682","EPHEMERIS_TYPE":"0","MEAN_MOTION_DOT":"0.00007624","COUNTRY_CODE":"US","OBJECT_TYPE":"PAYLOAD","MEAN_MOTION":"14.98201204","ELEMENT_SET_NO":"999","FILE":"3926571","PERIAPSIS":"569.928","SEMIMAJOR_AXIS":"6950.591","OBJECT_NAME":"STARLINK-3047","GP_ID":"233357079","RCS_SIZE":"LARGE","MEAN_ANOMALY":"104.9505","RA_OF_ASC_NODE":"293.0438","ARG_OF_PERICENTER":"255.1252","APOAPSIS":"574.985","OBJECT_ID":"2021-082AW","NORAD_CAT_ID":"49174","TLE_LINE2":"2 49174  70.0000 293.0438 0003638 255.1252 104.9505 14.98201204 96825","SITE":"AFWTR","ECCENTRICITY":"0.00036380","BSTAR":"0.00064820000000","DECAY_DATE":null,"EPOCH":"2023-06-06T19:09:35.681760","CENTER_NAME":"EARTH","LAUNCH_DATE":"2021-09-14","CLASSIFICATION_TYPE":"U","PERIOD":"96.115","TLE_LINE1":"1 49174U 21082AW  23157.79832965  .00007624  00000-0  64820-3 0  9997","MEAN_MOTION_DDOT":"0.0000000000000","TIME_SYSTEM":"UTC"},{"MEAN_MOTION_DOT":"0.00000063","COUNTRY_CODE":"US","MEAN_MOTION":"14.98330945","OBJECT_TYPE":"PAYLOAD","OBJECT_NAME":"STARLINK-3087","SEMIMAJOR_AXIS":"6950.190","PERIAPSIS":"569.795","FILE":"3926571","ELEMENT_SET_NO":"999","GP_ID":"233357330","REF_FRAME":"TEME","MEAN_ELEMENT_THEORY":"SGP4","EPHEMERIS_TYPE":"0","REV_AT_EPOCH":"9564","INCLINATION":"70.0002","SITE":"AFWTR","BSTAR":"0.00001306900000","ECCENTRICITY":"0.00032510","CENTER_NAME":"EARTH","DECAY_DATE":null,"EPOCH":"2023-06-06T18:39:16.217856","CLASSIFICATION_TYPE":"U","LAUNCH_DATE":"2021-09-14","TIME_SYSTEM":"UTC","MEAN_MOTION_DDOT":"0.0000000000000","TLE_LINE1":"1 49175U 21082AX  23157.77727104  .00000063  00000-0  13069-4 0  9994","PERIOD":"96.107","MEAN_ANOMALY":"89.1693","RCS_SIZE":"LARGE","RA_OF_ASC_NODE":"293.2461","OBJECT_ID":"2021-082AX","APOAPSIS":"574.314","ARG_OF_PERICENTER":"270.9094","NORAD_CAT_ID":"49175","TLE_LINE2":"2 49175  70.0002 293.2461 0003251 270.9094  89.1693 14.98330945 95642"},{"TIME_SYSTEM":"UTC","MEAN_MOTION_DDOT":"0.0000000000000","TLE_LINE1":"1 49176U 21082AY  23157.76451577  .00000082  00000-0  14656-4 0  9996","PERIOD":"96.107","CLASSIFICATION_TYPE":"U","LAUNCH_DATE":"2021-09-14","CENTER_NAME":"EARTH","EPOCH":"2023-06-06T18:20:54.162528","DECAY_DATE":null,"SITE":"AFWTR","ECCENTRICITY":"0.00032350","BSTAR":"0.00001465600000","NORAD_CAT_ID":"49176","TLE_LINE2":"2 49176  70.0000 273.2661 0003235 266.6006  93.4783 14.98335609 96133","OBJECT_ID":"2021-082AY","APOAPSIS":"574.289","ARG_OF_PERICENTER":"266.6006","RA_OF_ASC_NODE":"273.2661","MEAN_ANOMALY":"93.4783","RCS_SIZE":"LARGE","GP_ID":"233356078","OBJECT_NAME":"STARLINK-3069","SEMIMAJOR_AXIS":"6950.176","PERIAPSIS":"569.792","ELEMENT_SET_NO":"999","FILE":"3926571","MEAN_MOTION":"14.98335609","OBJECT_TYPE":"PAYLOAD","MEAN_MOTION_DOT":"0.00000082","COUNTRY_CODE":"US","EPHEMERIS_TYPE":"0","REV_AT_EPOCH":"9613","INCLINATION":"70.0000","MEAN_ELEMENT_THEORY":"SGP4","REF_FRAME":"TEME"},{"RA_OF_ASC_NODE":"273.3933","MEAN_ANOMALY":"91.2500","RCS_SIZE":"LARGE","NORAD_CAT_ID":"49177","TLE_LINE2":"2 49177  70.0001 273.3933 0003299 268.8281  91.2500 14.98329694 97329","OBJECT_ID":"2021-082AZ","APOAPSIS":"574.352","ARG_OF_PERICENTER":"268.8281","CENTER_NAME":"EARTH","DECAY_DATE":null,"EPOCH":"2023-06-06T17:14:49.187040","BSTAR":"-0.00003503000000","SITE":"AFWTR","ECCENTRICITY":"0.00032990","TIME_SYSTEM":"UTC","MEAN_MOTION_DDOT":"0.0000000000000","TLE_LINE1":"1 49177U 21082AZ  23157.71862485 -.00000511  00000-0 -35030-4 0  9994","PERIOD":"96.107","CLASSIFICATION_TYPE":"U","LAUNCH_DATE":"2021-09-14","MEAN_ELEMENT_THEORY":"SGP4","REF_FRAME":"TEME","EPHEMERIS_TYPE":"0","REV_AT_EPOCH":"9732","INCLINATION":"70.0001","MEAN_MOTION":"14.98329694","OBJECT_TYPE":"PAYLOAD","MEAN_MOTION_DOT":"-0.00000511","COUNTRY_CODE":"US","GP_ID":"233356328","OBJECT_NAME":"STARLINK-3103","SEMIMAJOR_AXIS":"6950.194","PERIAPSIS":"569.766","FILE":"3926571","ELEMENT_SET_NO":"999"}];
